IRIDIUM 57              
1 25273U 98019B   24237.81683904  .00000658  00000+0  22274-3 0  9991
2 25273  86.3910 269.3673 0002253  91.1517 268.9937 14.35349726382472
IRIDIUM 63              
1 25286U 98021B   24237.46566398  .00001213  00000+0  41165-3 0  9994
2 25286  86.4011 206.4299 0002467  92.2885 267.8595 14.35920229381528
IRIDIUM 69              
1 25319U 98026A   24237.47184900  .00001029  00000+0  31969-3 0  9998
2 25319  86.3977 220.5989 0000515  14.1032 346.0181 14.40172907380345
IRIDIUM 71              
1 25320U 98026B   24237.87410312  .00001115  00000+0  34478-3 0  9997
2 25320  86.3985 215.1787 0002760  40.9501 319.1905 14.40483329381174
IRIDIUM 73              
1 25344U 98032C   24237.86603531  .00001768  00000+0  44422-3 0  9990
2 25344  86.4488 172.5463 0001892  82.5582 277.5838 14.50777121387885
IRIDIUM 82              
1 25467U 98051A   24237.52401251  .00023866  00000+0  11247-2 0  9996
2 25467  86.3702 253.2712 0118255 329.8186  29.6274 15.13280364378813
