<?xml version="1.0" encoding="UTF-8"?>
<ndm xmlns:xsi="http://www.w3.org/2001/XMLSchema-instance" xsi:noNamespaceSchemaLocation="https://sanaregistry.org/r/ndmxml_unqualified/ndmxml-2.0.0-master-2.0.xsd">
<omm id="CCSDS_OMM_VERS" version="2.0">
<header><CREATION_DATE/><ORIGINATOR/></header><body><segment><metadata><OBJECT_NAME>IRIDIUM 57</OBJECT_NAME><OBJECT_ID>1998-019B</OBJECT_ID><CENTER_NAME>EARTH</CENTER_NAME><REF_FRAME>TEME</REF_FRAME><TIME_SYSTEM>UTC</TIME_SYSTEM><MEAN_ELEMENT_THEORY>SGP4</MEAN_ELEMENT_THEORY></metadata><data><meanElements><EPOCH>2024-08-24T19:36:14.893056</EPOCH><MEAN_MOTION>14.35349726</MEAN_MOTION><ECCENTRICITY>.0002253</ECCENTRICITY><INCLINATION>86.3910</INCLINATION><RA_OF_ASC_NODE>269.3673</RA_OF_ASC_NODE><ARG_OF_PERICENTER>91.1517</ARG_OF_PERICENTER><MEAN_ANOMALY>268.9937</MEAN_ANOMALY></meanElements><tleParameters><EPHEMERIS_TYPE>0</EPHEMERIS_TYPE><CLASSIFICATION_TYPE>U</CLASSIFICATION_TYPE><NORAD_CAT_ID>25273</NORAD_CAT_ID><ELEMENT_SET_NO>999</ELEMENT_SET_NO><REV_AT_EPOCH>38247</REV_AT_EPOCH><BSTAR>.22274E-3</BSTAR><MEAN_MOTION_DOT>.658E-5</MEAN_MOTION_DOT><MEAN_MOTION_DDOT>0</MEAN_MOTION_DDOT></tleParameters></data></segment></body></omm>
<omm id="CCSDS_OMM_VERS" version="2.0">
<header><CREATION_DATE/><ORIGINATOR/></header><body><segment><metadata><OBJECT_NAME>IRIDIUM 63</OBJECT_NAME><OBJECT_ID>1998-021B</OBJECT_ID><CENTER_NAME>EARTH</CENTER_NAME><REF_FRAME>TEME</REF_FRAME><TIME_SYSTEM>UTC</TIME_SYSTEM><MEAN_ELEMENT_THEORY>SGP4</MEAN_ELEMENT_THEORY></metadata><data><meanElements><EPOCH>2024-08-24T11:10:33.367872</EPOCH><MEAN_MOTION>14.35920229</MEAN_MOTION><ECCENTRICITY>.0002467</ECCENTRICITY><INCLINATION>86.4011</INCLINATION><RA_OF_ASC_NODE>206.4299</RA_OF_ASC_NODE><ARG_OF_PERICENTER>92.2885</ARG_OF_PERICENTER><MEAN_ANOMALY>267.8595</MEAN_ANOMALY></meanElements><tleParameters><EPHEMERIS_TYPE>0</EPHEMERIS_TYPE><CLASSIFICATION_TYPE>U</CLASSIFICATION_TYPE><NORAD_CAT_ID>25286</NORAD_CAT_ID><ELEMENT_SET_NO>999</ELEMENT_SET_NO><REV_AT_EPOCH>38152</REV_AT_EPOCH><BSTAR>.41165E-3</BSTAR><MEAN_MOTION_DOT>.1213E-4</MEAN_MOTION_DOT><MEAN_MOTION_DDOT>0</MEAN_MOTION_DDOT></tleParameters></data></segment></body></omm>
<omm id="CCSDS_OMM_VERS" version="2.0">
<header><CREATION_DATE/><ORIGINATOR/></header><body><segment><metadata><OBJECT_NAME>IRIDIUM 69</OBJECT_NAME><OBJECT_ID>1998-026A</OBJECT_ID><CENTER_NAME>EARTH</CENTER_NAME><REF_FRAME>TEME</REF_FRAME><TIME_SYSTEM>UTC</TIME_SYSTEM><MEAN_ELEMENT_THEORY>SGP4</MEAN_ELEMENT_THEORY></metadata><data><meanElements><EPOCH>2024-08-24T11:19:27.753600</EPOCH><MEAN_MOTION>14.40172907</MEAN_MOTION><ECCENTRICITY>.0000515</ECCENTRICITY><INCLINATION>86.3977</INCLINATION><RA_OF_ASC_NODE>220.5989</RA_OF_ASC_NODE><ARG_OF_PERICENTER>14.1032</ARG_OF_PERICENTER><MEAN_ANOMALY>346.0181</MEAN_ANOMALY></meanElements><tleParameters><EPHEMERIS_TYPE>0</EPHEMERIS_TYPE><CLASSIFICATION_TYPE>U</CLASSIFICATION_TYPE><NORAD_CAT_ID>25319</NORAD_CAT_ID><ELEMENT_SET_NO>999</ELEMENT_SET_NO><REV_AT_EPOCH>38034</REV_AT_EPOCH><BSTAR>.31969E-3</BSTAR><MEAN_MOTION_DOT>.1029E-4</MEAN_MOTION_DOT><MEAN_MOTION_DDOT>0</MEAN_MOTION_DDOT></tleParameters></data></segment></body></omm>
<omm id="CCSDS_OMM_VERS" version="2.0">
<header><CREATION_DATE/><ORIGINATOR/></header><body><segment><metadata><OBJECT_NAME>IRIDIUM 71</OBJECT_NAME><OBJECT_ID>1998-026B</OBJECT_ID><CENTER_NAME>EARTH</CENTER_NAME><REF_FRAME>TEME</REF_FRAME><TIME_SYSTEM>UTC</TIME_SYSTEM><MEAN_ELEMENT_THEORY>SGP4</MEAN_ELEMENT_THEORY></metadata><data><meanElements><EPOCH>2024-08-24T20:58:42.509568</EPOCH><MEAN_MOTION>14.40483329</MEAN_MOTION><ECCENTRICITY>.000276</ECCENTRICITY><INCLINATION>86.3985</INCLINATION><RA_OF_ASC_NODE>215.1787</RA_OF_ASC_NODE><ARG_OF_PERICENTER>40.9501</ARG_OF_PERICENTER><MEAN_ANOMALY>319.1905</MEAN_ANOMALY></meanElements><tleParameters><EPHEMERIS_TYPE>0</EPHEMERIS_TYPE><CLASSIFICATION_TYPE>U</CLASSIFICATION_TYPE><NORAD_CAT_ID>25320</NORAD_CAT_ID><ELEMENT_SET_NO>999</ELEMENT_SET_NO><REV_AT_EPOCH>38117</REV_AT_EPOCH><BSTAR>.34478E-3</BSTAR><MEAN_MOTION_DOT>.1115E-4</MEAN_MOTION_DOT><MEAN_MOTION_DDOT>0</MEAN_MOTION_DDOT></tleParameters></data></segment></body></omm>
<omm id="CCSDS_OMM_VERS" version="2.0">
<header><CREATION_DATE/><ORIGINATOR/></header><body><segment><metadata><OBJECT_NAME>IRIDIUM 73</OBJECT_NAME><OBJECT_ID>1998-032C</OBJECT_ID><CENTER_NAME>EARTH</CENTER_NAME><REF_FRAME>TEME</REF_FRAME><TIME_SYSTEM>UTC</TIME_SYSTEM><MEAN_ELEMENT_THEORY>SGP4</MEAN_ELEMENT_THEORY></metadata><data><meanElements><EPOCH>2024-08-24T20:47:05.450784</EPOCH><MEAN_MOTION>14.50777121</MEAN_MOTION><ECCENTRICITY>.0001892</ECCENTRICITY><INCLINATION>86.4488</INCLINATION><RA_OF_ASC_NODE>172.5463</RA_OF_ASC_NODE><ARG_OF_PERICENTER>82.5582</ARG_OF_PERICENTER><MEAN_ANOMALY>277.5838</MEAN_ANOMALY></meanElements><tleParameters><EPHEMERIS_TYPE>0</EPHEMERIS_TYPE><CLASSIFICATION_TYPE>U</CLASSIFICATION_TYPE><NORAD_CAT_ID>25344</NORAD_CAT_ID><ELEMENT_SET_NO>999</ELEMENT_SET_NO><REV_AT_EPOCH>38788</REV_AT_EPOCH><BSTAR>.44422E-3</BSTAR><MEAN_MOTION_DOT>.1768E-4</MEAN_MOTION_DOT><MEAN_MOTION_DDOT>0</MEAN_MOTION_DDOT></tleParameters></data></segment></body></omm>
<omm id="CCSDS_OMM_VERS" version="2.0">
<header><CREATION_DATE/><ORIGINATOR/></header><body><segment><metadata><OBJECT_NAME>IRIDIUM 82</OBJECT_NAME><OBJECT_ID>1998-051A</OBJECT_ID><CENTER_NAME>EARTH</CENTER_NAME><REF_FRAME>TEME</REF_FRAME><TIME_SYSTEM>UTC</TIME_SYSTEM><MEAN_ELEMENT_THEORY>SGP4</MEAN_ELEMENT_THEORY></metadata><data><meanElements><EPOCH>2024-08-24T12:34:34.680864</EPOCH><MEAN_MOTION>15.13280364</MEAN_MOTION><ECCENTRICITY>.0118255</ECCENTRICITY><INCLINATION>86.3702</INCLINATION><RA_OF_ASC_NODE>253.2712</RA_OF_ASC_NODE><ARG_OF_PERICENTER>329.8186</ARG_OF_PERICENTER><MEAN_ANOMALY>29.6274</MEAN_ANOMALY></meanElements><tleParameters><EPHEMERIS_TYPE>0</EPHEMERIS_TYPE><CLASSIFICATION_TYPE>U</CLASSIFICATION_TYPE><NORAD_CAT_ID>25467</NORAD_CAT_ID><ELEMENT_SET_NO>999</ELEMENT_SET_NO><REV_AT_EPOCH>37881</REV_AT_EPOCH><BSTAR>.11247E-2</BSTAR><MEAN_MOTION_DOT>.23866E-3</MEAN_MOTION_DOT><MEAN_MOTION_DDOT>0</MEAN_MOTION_DDOT></tleParameters></data></segment></body></omm>
</ndm>
